start=new Date('2022-05-20T00:00:00.000Z').valueOf();
sats=[{"OBJECT_NAME":"STARLINK-1200","ARG_OF_PERICENTER":"52.0521","BSTAR":"-0.00002886500000","EPOCH":"2022-05-19T13:40:07.764384","TIME_SYSTEM":"UTC","COUNTRY_CODE":"US","CENTER_NAME":"EARTH","OBJECT_TYPE":"PAYLOAD","PERIAPSIS":"545.928","LAUNCH_DATE":"2020-02-17","NORAD_CAT_ID":"45181","MEAN_MOTION_DDOT":"0.0000000000000","MEAN_MOTION_DOT":"-0.00000711","APOAPSIS":"548.560","REF_FRAME":"TEME","RA_OF_ASC_NODE":"167.1176","MEAN_ANOMALY":"308.0640","TLE_LINE1":"1 45181U 20012D   22139.56953431 -.00000711  00000-0 -28865-4 0  9991","CLASSIFICATION_TYPE":"U","MEAN_ELEMENT_THEORY":"SGP4","FILE":"3453812","RCS_SIZE":"LARGE","DECAY_DATE":null,"REV_AT_EPOCH":"12531","SITE":"AFETR","MEAN_MOTION":"15.06390003","ELEMENT_SET_NO":"999","OBJECT_ID":"2020-012D","SEMIMAJOR_AXIS":"6925.379","ECCENTRICITY":"0.00019000","TLE_LINE2":"2 45181  53.0543 167.1176 0001900  52.0521 308.0640 15.06390003125315","PERIOD":"95.593","INCLINATION":"53.0543","EPHEMERIS_TYPE":"0","GP_ID":"203985551"},{"TIME_SYSTEM":"UTC","EPOCH":"2022-05-19T10:58:14.094048","ARG_OF_PERICENTER":"50.8333","OBJECT_NAME":"STARLINK-1201","BSTAR":"0.00005250300000","CENTER_NAME":"EARTH","OBJECT_TYPE":"PAYLOAD","COUNTRY_CODE":"US","MEAN_MOTION_DOT":"0.00000500","APOAPSIS":"548.581","MEAN_MOTION_DDOT":"0.0000000000000","NORAD_CAT_ID":"45182","PERIAPSIS":"545.856","LAUNCH_DATE":"2020-02-17","REF_FRAME":"TEME","MEAN_ANOMALY":"309.2830","RA_OF_ASC_NODE":"147.6212","CLASSIFICATION_TYPE":"U","TLE_LINE1":"1 45182U 20012E   22139.45710757  .00000500  00000-0  52503-4 0  9992","SITE":"AFETR","MEAN_MOTION":"15.06398428","ELEMENT_SET_NO":"999","REV_AT_EPOCH":"12542","DECAY_DATE":null,"MEAN_ELEMENT_THEORY":"SGP4","FILE":"3453038","RCS_SIZE":"LARGE","TLE_LINE2":"2 45182  53.0515 147.6212 0001967  50.8333 309.2830 15.06398428125424","ECCENTRICITY":"0.00019670","OBJECT_ID":"2020-012E","SEMIMAJOR_AXIS":"6925.353","EPHEMERIS_TYPE":"0","GP_ID":"203941918","INCLINATION":"53.0515","PERIOD":"95.592"},{"EPOCH":"2022-05-19T19:19:49.606464","ARG_OF_PERICENTER":"59.2098","OBJECT_NAME":"STARLINK-1202","BSTAR":"0.00010613000000","TIME_SYSTEM":"UTC","COUNTRY_CODE":"US","OBJECT_TYPE":"PAYLOAD","CENTER_NAME":"EARTH","NORAD_CAT_ID":"45183","MEAN_MOTION_DDOT":"0.0000000000000","LAUNCH_DATE":"2020-02-17","PERIAPSIS":"545.921","MEAN_MOTION_DOT":"0.00001299","APOAPSIS":"548.540","REF_FRAME":"TEME","RA_OF_ASC_NODE":"166.0550","MEAN_ANOMALY":"300.9077","CLASSIFICATION_TYPE":"U","TLE_LINE1":"1 45183U 20012F   22139.80543526  .00001299  00000-0  10613-3 0  9991","DECAY_DATE":null,"MEAN_ELEMENT_THEORY":"SGP4","FILE":"3453406","RCS_SIZE":"LARGE","ELEMENT_SET_NO":"999","SITE":"AFETR","MEAN_MOTION":"15.06394500","REV_AT_EPOCH":"12469","ECCENTRICITY":"0.00018910","SEMIMAJOR_AXIS":"6925.365","OBJECT_ID":"2020-012F","TLE_LINE2":"2 45183  53.0548 166.0550 0001891  59.2098 300.9077 15.06394500124694","INCLINATION":"53.0548","PERIOD":"95.592","EPHEMERIS_TYPE":"0","GP_ID":"203956469"},{"APOAPSIS":"548.478","MEAN_MOTION_DOT":"0.00002877","MEAN_MOTION_DDOT":"0.0000000000000","NORAD_CAT_ID":"45184","PERIAPSIS":"545.949","LAUNCH_DATE":"2020-02-17","RA_OF_ASC_NODE":"146.3928","MEAN_ANOMALY":"313.4256","REF_FRAME":"TEME","TIME_SYSTEM":"UTC","EPOCH":"2022-05-19T17:31:00.813792","BSTAR":"0.00021196000000","OBJECT_NAME":"STARLINK-1205","ARG_OF_PERICENTER":"46.6885","OBJECT_TYPE":"PAYLOAD","CENTER_NAME":"EARTH","COUNTRY_CODE":"US","TLE_LINE2":"2 45184  53.0556 146.3928 0001826  46.6885 313.4256 15.06399919124659","ECCENTRICITY":"0.00018260","SEMIMAJOR_AXIS":"6925.349","OBJECT_ID":"2020-012G","GP_ID":"203984800","EPHEMERIS_TYPE":"0","PERIOD":"95.592","INCLINATION":"53.0556","CLASSIFICATION_TYPE":"U","TLE_LINE1":"1 45184U 20012G   22139.72987053  .00002877  00000-0  21196-3 0  9991","SITE":"AFETR","MEAN_MOTION":"15.06399919","ELEMENT_SET_NO":"999","REV_AT_EPOCH":"12465","DECAY_DATE":null,"FILE":"3453812","MEAN_ELEMENT_THEORY":"SGP4","RCS_SIZE":"LARGE"},{"APOAPSIS":"548.422","MEAN_MOTION_DOT":"-0.00000507","NORAD_CAT_ID":"45185","MEAN_MOTION_DDOT":"0.0000000000000","LAUNCH_DATE":"2020-02-17","PERIAPSIS":"546.101","MEAN_ANOMALY":"300.9768","RA_OF_ASC_NODE":"166.0852","REF_FRAME":"TEME","TIME_SYSTEM":"UTC","EPOCH":"2022-05-19T19:09:13.253184","BSTAR":"-0.00001517400000","ARG_OF_PERICENTER":"59.1385","OBJECT_NAME":"STARLINK-1216","OBJECT_TYPE":"PAYLOAD","CENTER_NAME":"EARTH","COUNTRY_CODE":"US","TLE_LINE2":"2 45185  53.0547 166.0852 0001676  59.1385 300.9768 15.06384295124708","ECCENTRICITY":"0.00016760","SEMIMAJOR_AXIS":"6925.397","OBJECT_ID":"2020-012H","GP_ID":"203956493","EPHEMERIS_TYPE":"0","PERIOD":"95.593","INCLINATION":"53.0547","CLASSIFICATION_TYPE":"U","TLE_LINE1":"1 45185U 20012H   22139.79807006 -.00000507  00000-0 -15174-4 0  9998","SITE":"AFETR","MEAN_MOTION":"15.06384295","ELEMENT_SET_NO":"999","REV_AT_EPOCH":"12470","DECAY_DATE":null,"FILE":"3453408","RCS_SIZE":"LARGE","MEAN_ELEMENT_THEORY":"SGP4"},{"PERIOD":"95.593","INCLINATION":"53.0551","EPHEMERIS_TYPE":"0","GP_ID":"203953576","ECCENTRICITY":"0.00019380","SEMIMAJOR_AXIS":"6925.367","OBJECT_ID":"2020-012J","TLE_LINE2":"2 45186  53.0551 166.0213 0001938  47.0559 313.0593 15.06393982124709","DECAY_DATE":null,"FILE":"3453307","MEAN_ELEMENT_THEORY":"SGP4","RCS_SIZE":"LARGE","SITE":"AFETR","ELEMENT_SET_NO":"999","MEAN_MOTION":"15.06393982","REV_AT_EPOCH":"12470","CLASSIFICATION_TYPE":"U","TLE_LINE1":"1 45186U 20012J   22139.81280822  .00001013  00000-0  86922-4 0  9993","REF_FRAME":"TEME","MEAN_ANOMALY":"313.0593","RA_OF_ASC_NODE":"166.0213","NORAD_CAT_ID":"45186","MEAN_MOTION_DDOT":"0.0000000000000","PERIAPSIS":"545.890","LAUNCH_DATE":"2020-02-17","MEAN_MOTION_DOT":"0.00001013","APOAPSIS":"548.574","COUNTRY_CODE":"US","OBJECT_TYPE":"PAYLOAD","CENTER_NAME":"EARTH","EPOCH":"2022-05-19T19:30:26.630208","OBJECT_NAME":"STARLINK-1224","ARG_OF_PERICENTER":"47.0559","BSTAR":"0.00008692200000","TIME_SYSTEM":"UTC"},{"ECCENTRICITY":"0.00019520","SEMIMAJOR_AXIS":"6925.366","OBJECT_ID":"2020-012K","TLE_LINE2":"2 45187  53.0542 168.0910 0001952  40.9304 319.1831 15.06394430124387","INCLINATION":"53.0542","PERIOD":"95.592","GP_ID":"203953599","EPHEMERIS_TYPE":"0","CLASSIFICATION_TYPE":"U","TLE_LINE1":"1 45187U 20012K   22139.35206001 -.00000155  00000-0  85005-5 0  9999","DECAY_DATE":null,"FILE":"3453318","MEAN_ELEMENT_THEORY":"SGP4","RCS_SIZE":"LARGE","MEAN_MOTION":"15.06394430","SITE":"AFETR","ELEMENT_SET_NO":"999","REV_AT_EPOCH":"12438","NORAD_CAT_ID":"45187","MEAN_MOTION_DDOT":"0.0000000000000","LAUNCH_DATE":"2020-02-17","PERIAPSIS":"545.879","APOAPSIS":"548.582","MEAN_MOTION_DOT":"-0.00000155","MEAN_ANOMALY":"319.1831","RA_OF_ASC_NODE":"168.0910","REF_FRAME":"TEME","EPOCH":"2022-05-19T08:26:57.984864","BSTAR":"0.00000850050000","ARG_OF_PERICENTER":"40.9304","OBJECT_NAME":"STARLINK-1225","TIME_SYSTEM":"UTC","COUNTRY_CODE":"US","OBJECT_TYPE":"PAYLOAD","CENTER_NAME":"EARTH"},{"TLE_LINE1":"1 45188U 20012L   22139.38154734 -.00000250  00000-0  21648-5 0  9997","CLASSIFICATION_TYPE":"U","RCS_SIZE":"LARGE","FILE":"3453038","MEAN_ELEMENT_THEORY":"SGP4","DECAY_DATE":null,"REV_AT_EPOCH":"12579","SITE":"AFETR","MEAN_MOTION":"15.06403709","ELEMENT_SET_NO":"999","SEMIMAJOR_AXIS":"6925.337","OBJECT_ID":"2020-012L","ECCENTRICITY":"0.00022680","TLE_LINE2":"2 45188  53.0555 127.9693 0002268  41.8071 318.3090 15.06403709125790","INCLINATION":"53.0555","PERIOD":"95.592","GP_ID":"203942421","EPHEMERIS_TYPE":"0","BSTAR":"0.00000216480000","OBJECT_NAME":"STARLINK-1228","ARG_OF_PERICENTER":"41.8071","EPOCH":"2022-05-19T09:09:25.690176","TIME_SYSTEM":"UTC","COUNTRY_CODE":"US","CENTER_NAME":"EARTH","OBJECT_TYPE":"PAYLOAD","PERIAPSIS":"545.632","LAUNCH_DATE":"2020-02-17","NORAD_CAT_ID":"45188","MEAN_MOTION_DDOT":"0.0000000000000","APOAPSIS":"548.773","MEAN_MOTION_DOT":"-0.00000250","RA_OF_ASC_NODE":"127.9693","MEAN_ANOMALY":"318.3090","REF_FRAME":"TEME"},{"APOAPSIS":"548.565","MEAN_MOTION_DOT":"0.00001607","LAUNCH_DATE":"2020-02-17","PERIAPSIS":"545.934","NORAD_CAT_ID":"45189","MEAN_MOTION_DDOT":"0.0000000000000","RA_OF_ASC_NODE":"167.1833","MEAN_ANOMALY":"308.0977","REF_FRAME":"TEME","TIME_SYSTEM":"UTC","BSTAR":"0.00012681000000","ARG_OF_PERICENTER":"52.0184","OBJECT_NAME":"STARLINK-1230","EPOCH":"2022-05-19T13:18:54.453024","CENTER_NAME":"EARTH","OBJECT_TYPE":"PAYLOAD","COUNTRY_CODE":"US","TLE_LINE2":"2 45189  53.0547 167.1833 0001900  52.0184 308.0977 15.06388316124374","SEMIMAJOR_AXIS":"6925.384","OBJECT_ID":"2020-012M","ECCENTRICITY":"0.00019000","GP_ID":"203952458","EPHEMERIS_TYPE":"0","INCLINATION":"53.0547","PERIOD":"95.593","TLE_LINE1":"1 45189U 20012M   22139.55479691  .00001607  00000-0  12681-3 0  9990","CLASSIFICATION_TYPE":"U","REV_AT_EPOCH":"12437","MEAN_MOTION":"15.06388316","SITE":"AFETR","ELEMENT_SET_NO":"999","RCS_SIZE":"LARGE","FILE":"3453262","MEAN_ELEMENT_THEORY":"SGP4","DECAY_DATE":null},{"CENTER_NAME":"EARTH","OBJECT_TYPE":"PAYLOAD","COUNTRY_CODE":"US","TIME_SYSTEM":"UTC","EPOCH":"2022-05-19T10:34:20.727552","ARG_OF_PERICENTER":"41.2812","OBJECT_NAME":"STARLINK-1234","BSTAR":"0.00008208100000","REF_FRAME":"TEME","MEAN_ANOMALY":"318.8397","RA_OF_ASC_NODE":"127.6962","MEAN_MOTION_DOT":"0.00000941","APOAPSIS":"549.223","MEAN_MOTION_DDOT":"0.0000000000000","NORAD_CAT_ID":"45190","LAUNCH_DATE":"2020-02-17","PERIAPSIS":"545.181","MEAN_MOTION":"15.06403757","SITE":"AFETR","ELEMENT_SET_NO":"999","REV_AT_EPOCH":"12575","DECAY_DATE":null,"RCS_SIZE":"LARGE","FILE":"3453038","MEAN_ELEMENT_THEORY":"SGP4","CLASSIFICATION_TYPE":"U","TLE_LINE1":"1 45190U 20012N   22139.44051768  .00000941  00000-0  82081-4 0  9993","EPHEMERIS_TYPE":"0","GP_ID":"203941919","PERIOD":"95.592","INCLINATION":"53.0543","TLE_LINE2":"2 45190  53.0543 127.6962 0002918  41.2812 318.8397 15.06403757125759","ECCENTRICITY":"0.00029180","SEMIMAJOR_AXIS":"6925.337","OBJECT_ID":"2020-012N"}];
